OBJECT_NAME,OBJECT_ID,EPOCH,MEAN_MOTION,ECCENTRICITY,INCLINATION,RA_OF_ASC_NODE,ARG_OF_PERICENTER,MEAN_ANOMALY,EPHEMERIS_TYPE,CLASSIFICATION_TYPE,NORAD_CAT_ID,ELEMENT_SET_NO,REV_AT_EPOCH,BSTAR,MEAN_MOTION_DOT,MEAN_MOTION_DDOT
FLOCK 4BE-7,2024-149P,2026-07-22T03:39:46.214208,15.41696734,.00044904,97.3743,286.5530,131.5427,228.6206,0,U,60481,999,10763,.62807492E-3,.26482E-3,0
TOMORROW-S2,2024-149T,2026-07-22T03:41:21.369984,15.33211378,.00043136,97.3805,284.0475,132.0379,228.1231,0,U,60485,999,10744,.23935304E-3,.7604E-4,0
FLOCK 4BE-36,2024-149U,2026-07-22T04:42:47.928384,15.43708231,.0005164,97.3731,288.0675,133.4141,226.7538,0,U,60486,999,10775,.42403104E-3,.19079E-3,0
FLOCK 4BE-25,2024-149V,2026-07-22T04:36:28.640160,15.39679253,.00040696,97.3783,286.5994,127.8082,232.3533,0,U,60487,999,10762,.39379486E-3,.1548E-3,0
FLOCK 4BE-31,2024-149W,2026-07-22T04:37:38.851392,15.45357523,.00041064,97.3786,289.0293,133.0760,227.0833,0,U,60488,999,10778,.47738442E-3,.22734E-3,0
FLOCK 4BE-20,2024-149X,2026-07-22T04:08:21.388992,15.38936499,.00054565,97.3682,285.3707,134.1319,226.0376,0,U,60489,999,10759,.35993353E-3,.13801E-3,0
FLOCK 4BE-23,2024-149Y,2026-07-22T04:08:13.269120,15.38494329,.00051001,97.3764,285.7643,138.0155,222.1482,0,U,60490,999,10757,.37871825E-3,.14318E-3,0
FLOCK 4BE-17,2024-149AA,2026-07-22T04:08:03.187104,15.40726083,.00046866,97.3759,286.8394,129.3660,230.8002,0,U,60492,999,10764,.44435854E-3,.18099E-3,0
NUSAT-50 (NANCY ROMAN),2024-149AB,2026-07-22T03:43:06.122208,15.30402086,.0004801,97.3772,284.1786,85.7010,274.4779,0,U,60493,999,10747,.31462559E-3,.9179E-4,0
FLOCK 4BE-22,2024-149AC,2026-07-22T04:28:54.411168,15.42256332,.00050101,97.3719,287.1030,136.0439,224.1208,0,U,60494,999,10769,.81610555E-3,.35125E-3,0
FLOCK 4BE-34,2024-149AD,2026-07-21T16:27:09.248544,15.42087256,.00052802,97.3767,287.4395,143.9659,216.1945,0,U,60495,999,10764,.37824963E-3,.16103E-3,0
TYCHE,2024-149AE,2026-07-22T03:42:17.047872,15.25815363,.00035811,97.3740,280.4978,148.9571,211.1879,0,U,60496,999,10723,.15094745E-3,.3788E-4,0
FLOCK 4BE-32,2024-149AF,2026-07-22T03:34:03.744480,15.43261845,.00053698,97.3705,287.4802,140.0278,220.1366,0,U,60497,999,10772,.4482462E-3,.19876E-3,0
NUSAT-48 (HENRIETTA LEAVITT),2024-149AG,2026-07-21T03:55:16.363776,15.30206211,.00057606,97.3891,283.4962,144.1271,216.0357,0,U,60498,999,10733,.22871295E-3,.661E-4,0
NUSAT-49 (KLARA DAN VON NEUMANN),2024-149AJ,2026-07-21T11:15:03.157920,15.29847650,.00032494,97.3772,283.5228,145.3637,214.7816,0,U,60500,999,10737,.79184532E-4,.2213E-4,0
FLOCK 4BE-11,2024-149AK,2026-07-22T04:33:29.385216,15.44056464,.00053747,97.3684,287.7848,139.1555,221.0097,0,U,60501,999,10775,.450604E-3,.20525E-3,0
YAM-7,2024-149AN,2026-07-22T04:42:50.604192,15.32248637,.00043479,97.3770,283.3120,148.7470,211.4031,0,U,60504,999,10741,.23041675E-3,.7098E-4,0
FLOCK 4BE-24,2024-149AP,2026-07-22T04:08:29.249664,15.44300291,.00055291,97.3697,288.0399,150.1633,209.9932,0,U,60505,999,10776,.49834489E-3,.22905E-3,0
LUR-1,2024-149AQ,2026-07-22T03:51:35.241984,15.30509741,.00046477,97.3722,281.7429,160.1460,199.9962,0,U,60506,999,10732,.23528837E-3,.6866E-4,0
TANAGER-1,2024-149AR,2026-07-21T16:40:57.714816,15.43900419,.00029181,97.2311,296.7887,125.5965,234.5556,0,U,60507,999,10836,.7361001E-5,.25E-5,0
EAGLEEYE,2024-149AS,2026-07-22T04:32:08.603808,15.78242661,.00043403,97.3704,298.6481,172.9630,187.1698,0,U,60508,999,10844,.91518104E-3,.158922E-2,0
FLOCK 4BE-29,2024-149AT,2026-07-22T03:45:51.045984,15.45904686,.00041644,97.3793,289.5917,159.7990,200.3425,0,U,60509,999,10781,.10641074E-2,.51935E-3,0
TRANSPORTER-11 OBJECT AU,2024-149AU,2026-07-22T04:40:36.648768,15.41117015,.00048368,97.3717,287.2160,148.0802,212.0738,0,U,60510,999,10770,.39431161E-3,.16257E-3,0
FLOCK 4BE-2,2024-149AV,2026-07-22T04:50:53.001312,15.56583896,.00053744,97.3818,291.5976,154.8830,205.2687,0,U,60511,999,10794,.10795358E-2,.77269E-3,0
FLOCK 4BE-13,2024-149AW,2026-07-22T04:34:11.052480,15.42752221,.00055044,97.3708,287.9859,135.7312,224.4377,0,U,60512,999,10776,.35691726E-3,.15532E-3,0
FLOCK 4BE-27,2024-149AX,2026-07-22T03:23:47.727168,15.35005298,.00045602,97.3814,285.0215,160.5711,199.5707,0,U,60513,999,10750,.29637428E-3,.9989E-4,0
FLOCK 4BE-9,2024-149AY,2026-07-22T03:33:26.418816,15.41782232,.00041747,97.3782,287.7818,153.2498,206.8965,0,U,60514,999,10770,.43425663E-3,.18315E-3,0
