FLOCK 4BE-7             
1 60481U 24149P   26203.15261822  .00026482  00000+0  62807-3 0  9996
2 60481  97.3743 286.5530 0004490 131.5427 228.6206 15.41696734107632
TOMORROW-S2             
1 60485U 24149T   26203.15371956  .00007604  00000+0  23935-3 0  9994
2 60485  97.3805 284.0475 0004313 132.0379 228.1231 15.33211378107442
FLOCK 4BE-36            
1 60486U 24149U   26203.19638806  .00019079  00000+0  42403-3 0  9999
2 60486  97.3731 288.0675 0005164 133.4141 226.7538 15.43708231107752
FLOCK 4BE-25            
1 60487U 24149V   26203.19199815  .00015480  00000+0  39379-3 0  9992
2 60487  97.3783 286.5994 0004069 127.8082 232.3533 15.39679253107621
FLOCK 4BE-31            
1 60488U 24149W   26203.19281078  .00022734  00000+0  47738-3 0  9994
2 60488  97.3786 289.0293 0004106 133.0760 227.0833 15.45357523107780
FLOCK 4BE-20            
1 60489U 24149X   26203.17246978  .00013801  00000+0  35993-3 0  9998
2 60489  97.3682 285.3707 0005456 134.1319 226.0376 15.38936499107593
FLOCK 4BE-23            
1 60490U 24149Y   26203.17237580  .00014318  00000+0  37872-3 0  9991
2 60490  97.3764 285.7643 0005100 138.0155 222.1482 15.38494329107570
FLOCK 4BE-17            
1 60492U 24149AA  26203.17225911  .00018099  00000+0  44436-3 0  9992
2 60492  97.3759 286.8394 0004686 129.3660 230.8002 15.40726083107643
NUSAT-50 (NANCY ROMAN)  
1 60493U 24149AB  26203.15493197  .00009179  00000+0  31463-3 0  9999
2 60493  97.3772 284.1786 0004801  85.7010 274.4779 15.30402086107477
FLOCK 4BE-22            
1 60494U 24149AC  26203.18674087  .00035125  00000+0  81611-3 0  9992
2 60494  97.3719 287.1030 0005010 136.0439 224.1208 15.42256332107699
FLOCK 4BE-34            
1 60495U 24149AD  26202.68552371  .00016103  00000+0  37825-3 0  9991
2 60495  97.3767 287.4395 0005280 143.9659 216.1945 15.42087256107641
TYCHE                   
1 60496U 24149AE  26203.15436398  .00003788  00000+0  15095-3 0  9995
2 60496  97.3740 280.4978 0003581 148.9571 211.1879 15.25815363107238
FLOCK 4BE-32            
1 60497U 24149AF  26203.14865445  .00019876  00000+0  44825-3 0  9992
2 60497  97.3705 287.4802 0005369 140.0278 220.1366 15.43261845107721
NUSAT-48 (HENRIETTA LE*)
1 60498U 24149AG  26202.16338384  .00006610  00000+0  22871-3 0  9990
2 60498  97.3891 283.4962 0005760 144.1271 216.0357 15.30206211107337
NUSAT-49 (KLARA DAN VO*)
1 60500U 24149AJ  26202.46878655  .00002213  00000+0  79185-4 0  9993
2 60500  97.3772 283.5228 0003249 145.3637 214.7816 15.29847650107379
FLOCK 4BE-11            
1 60501U 24149AK  26203.18992344  .00020525  00000+0  45060-3 0  9996
2 60501  97.3684 287.7848 0005374 139.1555 221.0097 15.44056464107753
YAM-7                   
1 60504U 24149AN  26203.19641903  .00007098  00000+0  23042-3 0  9998
2 60504  97.3770 283.3120 0004347 148.7470 211.4031 15.32248637107414
FLOCK 4BE-24            
1 60505U 24149AP  26203.17256076  .00022905  00000+0  49834-3 0  9991
2 60505  97.3697 288.0399 0005529 150.1633 209.9932 15.44300291107762
LUR-1                   
1 60506U 24149AQ  26203.16082456  .00006866  00000+0  23529-3 0  9991
2 60506  97.3722 281.7429 0004647 160.1460 199.9962 15.30509741107324
TANAGER-1               
1 60507U 24149AR  26202.69511244  .00000250  00000+0  73610-5 0  9990
2 60507  97.2311 296.7887 0002918 125.5965 234.5556 15.43900419108367
EAGLEEYE                
1 60508U 24149AS  26203.18898847  .00158922  00000+0  91518-3 0  9998
2 60508  97.3704 298.6481 0004340 172.9630 187.1698 15.78242661108447
FLOCK 4BE-29            
1 60509U 24149AT  26203.15684081  .00051935  00000+0  10641-2 0  9992
2 60509  97.3793 289.5917 0004164 159.7990 200.3425 15.45904686107817
TRANSPORTER-11 OBJECT AU
1 60510U 24149AU  26203.19486862  .00016257  00000+0  39431-3 0  9992
2 60510  97.3717 287.2160 0004836 148.0802 212.0738 15.41117015107702
FLOCK 4BE-2             
1 60511U 24149AV  26203.20200233  .00077269  00000+0  10795-2 0  9992
2 60511  97.3818 291.5976 0005374 154.8830 205.2687 15.56583896107945
FLOCK 4BE-13            
1 60512U 24149AW  26203.19040570  .00015532  00000+0  35692-3 0  9996
2 60512  97.3708 287.9859 0005504 135.7312 224.4377 15.42752221107765
FLOCK 4BE-27            
1 60513U 24149AX  26203.14152462  .00009989  00000+0  29637-3 0  9997
2 60513  97.3814 285.0215 0004560 160.5711 199.5707 15.35005298107507
FLOCK 4BE-9             
1 60514U 24149AY  26203.14822244  .00018315  00000+0  43426-3 0  9995
2 60514  97.3782 287.7818 0004174 153.2498 206.8965 15.41782232107709
